NORAD_CAT_ID,OBJECT_NAME,OBJECT_TYPE,EPOCH,MEAN_MOTION,ECCENTRICITY,INCLINATION,RA_OF_ASC_NODE,ARG_OF_PERICENTER,MEAN_ANOMALY,BSTAR,MEAN_MOTION_DOT,MEAN_MOTION_DDOT,TLE_LINE0,TLE_LINE1,TLE_LINE2,SEMIMAJOR_AXIS,PERIOD,APOGEE,PERIGEE,DECAYED
51741.0,STARLINK-3520,PAYLOAD,2022-08-28 22:00:00,15.08874246,0.0001520999999999,53.218,344.64300000000014,61.8658,168.9154,-0.004776,-0.00075572,0.0,0 STARLINK-3520,1 51741U 22016AD  22240.91667824 -.00075572  00000-0 -47760-2 0  9996,2 51741  53.2180 344.6430 0001521  61.8658 168.9154 15.08874246  1309,6917.776,95.435,540.693,538.589,0.0
51741.0,STARLINK-3520,PAYLOAD,2022-08-29 14:00:01,15.08826157,0.0001655,53.2179,341.6512,62.8198,191.1465,4.2177e-05,3.83e-06,0.0,0 STARLINK-3520,1 51741U 22016AD  22241.58334491  .00000383  00000-0  42177-4 0  9996,2 51741  53.2179 341.6512 0001655  62.8198 191.1465 15.08826157  1304,6917.9230000000025,95.438,540.933,538.643,0.0
51741.0,STARLINK-3520,PAYLOAD,2022-08-29 16:00:00,15.08815255,0.0001666999999999,53.2181,341.2774,61.7391,285.1268,0.002143,0.0003396,0.0,0 STARLINK-3520,1 51741U 22016AD  22241.66667824  .00033960  00000-0  21430-2 0  9998,2 51741  53.2181 341.2774 0001667  61.7391 285.1268 15.08815255 30224,6917.956,95.439,540.974,538.668,0.0
51741.0,STARLINK-3520,PAYLOAD,2022-08-29 22:00:00,15.08853437,0.0001584,53.2178,340.1542,61.8308,203.7132,-0.0019641,-0.00031422,0.0,0 STARLINK-3520,1 51741U 22016AD  22241.91667824 -.00031422  00000-0 -19641-2 0  9990,2 51741  53.2178 340.1542 0001584  61.8308 203.7132 15.08853437  1305,6917.839,95.437,540.8,538.609,0.0
51741.0,STARLINK-3520,PAYLOAD,2022-08-30 14:00:01,15.0882435,0.0001623,53.2178,337.1622,59.5256,229.2218,-0.00036815,-6.14e-05,0.0,0 STARLINK-3520,1 51741U 22016AD  22242.58334491 -.00006140  00000-0 -36815-3 0  9997,2 51741  53.2178 337.1622 0001623  59.5256 229.2218 15.08824350  1300,6917.928000000001,95.439,540.9159999999998,538.67,0.0
51741.0,STARLINK-3520,PAYLOAD,2022-08-30 16:00:00,15.08802662,0.0001597,53.2179,336.7885,57.9083,323.7396,0.0025491,0.00040473,0.0,0 STARLINK-3520,1 51741U 22016AD  22242.66667824  .00040473  00000-0  25491-2 0  9997,2 51741  53.2179 336.7885 0001597  57.9083 323.7396 15.08802662 30386,6917.995,95.44,540.964,538.755,0.0
51741.0,STARLINK-3520,PAYLOAD,2022-08-30 22:00:00,15.08844058,0.0001519,53.2178,335.6651,58.2412,242.0754,-0.002012,-0.0003217,0.0,0 STARLINK-3520,1 51741U 22016AD  22242.91667824 -.00032170  00000-0 -20120-2 0  9996,2 51741  53.2178 335.6651 0001519  58.2412 242.0754 15.08844058  1304,6917.868,95.437,540.784,538.682,0.0
51741.0,STARLINK-3520,PAYLOAD,2022-08-31 14:00:01,15.08834518,0.0001656,53.218,332.6733,57.3634,266.1381,0.00082963,0.00012938,0.0,0 STARLINK-3520,1 51741U 22016AD  22243.58334491  .00012938  00000-0  82963-3 0  9993,2 51741  53.2180 332.6733 0001656  57.3634 266.1381 15.08834518  1306,6917.897,95.438,540.908,538.617,0.0
51741.0,STARLINK-3520,PAYLOAD,2022-08-31 22:00:00,15.08866173,0.000157,53.218,331.176,58.13800000000001,276.9532,-0.0023455,-0.0003745,0.0,0 STARLINK-3520,1 51741U 22016AD  22243.91667824 -.00037450  00000-0 -23455-2 0  9997,2 51741  53.2180 331.1760 0001570  58.1380 276.9532 15.08866173  1301,6917.8,95.436,540.751,538.5790000000002,0.0
51741.0,STARLINK-3520,PAYLOAD,2022-09-01 14:00:01,15.08823807,0.0001778,53.2182,328.1841,58.6883,299.6443,0.0010031,0.00015705,0.0,0 STARLINK-3520,1 51741U 22016AD  22244.58335648  .00015705  00000-0  10031-2 0  9990,2 51741  53.2182 328.1841 0001778  58.6883 299.6443 15.08823807 30663,6917.93,95.439,541.025,538.565,0.0
51741.0,STARLINK-3520,PAYLOAD,2022-09-01 22:00:00,15.08854222,0.0001672,53.2181,326.6867,60.1292,309.7229,-0.0017024999999999,-0.00027292,0.0,0 STARLINK-3520,1 51741U 22016AD  22244.91667824 -.00027292  00000-0 -17025-2 0  9997,2 51741  53.2181 326.6867 0001672  60.1292 309.7229 15.08854222  1307,6917.837,95.437,540.859,538.545,0.0
51741.0,STARLINK-3520,PAYLOAD,2022-09-02 14:00:01,15.08848015,0.000172,53.2182,323.695,57.5301,335.5245,-0.00052486,-8.633e-05,0.0,0 STARLINK-3520,1 51741U 22016AD  22245.58334491 -.00008633  00000-0 -52486-3 0  9991,2 51741  53.2182 323.6950 0001720  57.5301 335.5245 15.08848015  1301,6917.856,95.437,540.911,538.531,0.0
51741.0,STARLINK-3520,PAYLOAD,2022-09-02 16:00:00,15.08838229,0.0001683,53.2181,323.321,55.5382,70.4206,0.00050316,7.728e-05,0.0,0 STARLINK-3520,1 51741U 22016AD  22245.66667824  .00007728  00000-0  50316-3 0  9991,2 51741  53.2181 323.3210 0001683  55.5382  70.4206 15.08838229 30839,6917.886,95.438,540.915,538.587,0.0
51741.0,STARLINK-3520,PAYLOAD,2022-09-02 22:00:01,15.0884514,0.0001546,53.2181,322.1973,59.2233,345.4976,-0.0020957,-0.00033491,0.0,0 STARLINK-3520,1 51741U 22016AD  22245.91668981 -.00033491  00000-0 -20957-2 0  9999,2 51741  53.2181 322.1973 0001546  59.2233 345.4976 15.08845140  1305,6917.865,95.437,540.799,538.66,0.0
51741.0,STARLINK-3520,PAYLOAD,2022-09-03 14:00:01,15.08827715,0.0001621,53.2181,319.2058,56.2501,11.5916,0.0018690999999999,0.00029574,0.0,0 STARLINK-3520,1 51741U 22016AD  22246.58334491  .00029574  00000-0  18691-2 0  9996,2 51741  53.2181 319.2058 0001621  56.2501  11.5916 15.08827715  1308,6917.918000000002,95.438,540.904,538.6619999999998,0.0
51741.0,STARLINK-3520,PAYLOAD,2022-09-03 16:00:00,15.08821032,0.0001608,53.2178,318.8317,54.1428,106.5993,0.0032789,0.00052256,0.0,0 STARLINK-3520,1 51741U 22016AD  22246.66667824  .00052256  00000-0  32789-2 0  9991,2 51741  53.2178 318.8317 0001608  54.1428 106.5993 15.08821032 30989,6917.938,95.439,540.9159999999998,538.691,0.0
51741.0,STARLINK-3520,PAYLOAD,2022-09-03 22:00:00,15.08855566,0.0001505,53.2178,317.7081,59.788,19.6469,-0.00076947,-0.00012518,0.0,0 STARLINK-3520,1 51741U 22016AD  22246.91667824 -.00012518  00000-0 -76947-3 0  9993,2 51741  53.2178 317.7081 0001505  59.7880  19.6469 15.08855566  1309,6917.833000000001,95.437,540.739,538.6569999999998,0.0
51741.0,STARLINK-3520,PAYLOAD,2022-09-04 08:00:01,15.08845379,0.0001629,53.2179,315.8381,64.1623,119.7531,-0.0013002,-0.00020924,0.0,0 STARLINK-3520,1 51741U 22016AD  22247.33334491 -.00020924  00000-0 -13002-2 0  9993,2 51741  53.2179 315.8381 0001629  64.1623 119.7531 15.08845379 31085,6917.864000000001,95.437,540.856,538.602,0.0
51741.0,STARLINK-3520,PAYLOAD,2022-09-04 14:00:01,15.0881766,0.000172,53.2177,314.7169,58.5841,44.0943,0.0023206,0.00036815,0.0,0 STARLINK-3520,1 51741U 22016AD  22247.58335648  .00036815  00000-0  23206-2 0  9996,2 51741  53.2177 314.7169 0001720  58.5841  44.0943 15.08817660  1307,6917.949000000001,95.439,541.004,538.624,0.0
51741.0,STARLINK-3520,PAYLOAD,2022-09-04 18:00:00,15.08853761,0.0001695,53.2172,313.9682,57.9343,230.4736,7.055e-05,8.35e-06,0.0,0 STARLINK-3520,1 51741U 22016AD  22247.75001157  .00000835  00000-0  70550-4 0  9999,2 51741  53.2172 313.9682 0001695  57.9343 230.4736 15.08853761 31142,6917.8380000000025,95.437,540.876,538.531,0.0
51741.0,STARLINK-3520,PAYLOAD,2022-09-04 20:00:01,15.08864941,0.0001685,53.2173,313.5936,59.9837,321.3236,-0.0012857,-0.00020706,0.0,0 STARLINK-3520,1 51741U 22016AD  22247.83334491 -.00020706  00000-0 -12857-2 0  9993,2 51741  53.2173 313.5936 0001685  59.9837 321.3236 15.08864941  1302,6917.804,95.436,540.835,538.504,0.0
51741.0,STARLINK-3520,PAYLOAD,2022-09-05 14:00:01,15.08840039,0.0001776,53.2173,310.2278,59.1513,78.3005,-0.00017027,-2.997e-05,0.0,0 STARLINK-3520,1 51741U 22016AD  22248.58334491 -.00002997  00000-0 -17027-3 0  9993,2 51741  53.2173 310.2278 0001776  59.1513  78.3005 15.08840039  1304,6917.88,95.438,540.974,538.5169999999998,0.0
51741.0,STARLINK-3520,PAYLOAD,2022-09-05 22:00:00,15.08823537,0.000155,53.2171,308.73,60.9638,88.0882,-0.0017659,-0.0002827,0.0,0 STARLINK-3520,1 51741U 22016AD  22248.91667824 -.00028270  00000-0 -17659-2 0  9991,2 51741  53.2171 308.7300 0001550  60.9638  88.0882 15.08823537 31328,6917.931,95.439,540.868,538.7230000000002,0.0
51741.0,STARLINK-3520,PAYLOAD,2022-09-06 06:00:00,15.08838177,0.0001541,53.2172,307.2337,65.8805,94.758,-0.00051281,-8.44e-05,0.0,0 STARLINK-3520,1 51741U 22016AD  22249.25001157 -.00008440  00000-0 -51281-3 0  9997,2 51741  53.2172 307.2337 0001541  65.8805  94.7580 15.08838177 31373,6917.886,95.438,540.817,538.685,0.0
51741.0,STARLINK-3520,PAYLOAD,2022-09-06 14:00:01,15.08816131,0.00016,53.2171,305.7389,55.7246,116.5085,0.00053879,8.292e-05,0.0,0 STARLINK-3520,1 51741U 22016AD  22249.58334491  .00008292  00000-0  53879-3 0  9991,2 51741  53.2171 305.7389 0001600  55.7246 116.5085 15.08816131  1304,6917.953,95.439,540.925,538.711,0.0
51741.0,STARLINK-3520,PAYLOAD,2022-09-06 22:00:00,15.08809319,0.0001431,53.2171,304.241,59.4222,124.384,0.00063309,9.794e-05,0.0,0 STARLINK-3520,1 51741U 22016AD  22249.91667824  .00009794  00000-0  63309-3 0  9994,2 51741  53.2171 304.2410 0001431  59.4222 124.3840 15.08809319  1306,6917.974,95.439,540.8290000000002,538.849,0.0
51741.0,STARLINK-3520,PAYLOAD,2022-09-07 14:00:01,15.08803203,0.0001631999999999,53.2171,301.2501,53.0807,153.871,0.0034205,0.00054516,0.0,0 STARLINK-3520,1 51741U 22016AD  22250.58334491  .00054516  00000-0  34205-2 0  9994,2 51741  53.2171 301.2501 0001632  53.0807 153.8710 15.08803203 31577,6917.993,95.44,540.987,538.729,0.0
51741.0,STARLINK-3520,PAYLOAD,2022-09-07 22:00:00,15.08826251,0.0001493,53.2172,299.7521,57.8717,160.6593,0.0011179,0.00017541,0.0,0 STARLINK-3520,1 51741U 22016AD  22250.91667824  .00017541  00000-0  11179-2 0  9992,2 51741  53.2172 299.7521 0001493  57.8717 160.6593 15.08826251  1309,6917.922,95.438,540.82,538.755,0.0
51741.0,STARLINK-3520,PAYLOAD,2022-09-08 06:00:00,15.08868919,0.0001526,53.2172,298.2562,59.1204,170.9931,-0.0037749,-0.00059913,0.0,0 STARLINK-3520,1 51741U 22016AD  22251.25001157 -.00059913  00000-0 -37749-2 0  9993,2 51741  53.2172 298.2562 0001526  59.1204 170.9931 15.08868919 31671,6917.792,95.436,540.7130000000002,538.601,0.0
